[{"OBJECT_NAME":"STARLINK-6304","OBJECT_ID":"2023-078M","EPOCH":"2026-03-09T22:00:01.787040","MEAN_MOTION":14.98320396,"ECCENTRICITY":0.00029147,"INCLINATION":70.0005,"RA_OF_ASC_NODE":324.0422,"ARG_OF_PERICENTER":262.0648,"MEAN_ANOMALY":98.018,"EPHEMERIS_TYPE":0,"CLASSIFICATION_TYPE":"U","NORAD_CAT_ID":56778,"ELEMENT_SET_NO":999,"REV_AT_EPOCH":15320,"BSTAR":0.00013443317,"MEAN_MOTION_DOT":1.511e-5,"MEAN_MOTION_DDOT":0},{"OBJECT_NAME":"CENTAURI-7","OBJECT_ID":"2025-009DD","EPOCH":"2026-03-09T18:21:07.569216","MEAN_MOTION":14.97068612,"ECCENTRICITY":0.00019728,"INCLINATION":97.7123,"RA_OF_ASC_NODE":150.3372,"ARG_OF_PERICENTER":133.1699,"MEAN_ANOMALY":226.9688,"EPHEMERIS_TYPE":0,"CLASSIFICATION_TYPE":"U","NORAD_CAT_ID":62708,"ELEMENT_SET_NO":999,"REV_AT_EPOCH":6258,"BSTAR":0.00048082234,"MEAN_MOTION_DOT":5.487e-5,"MEAN_MOTION_DDOT":0}]
